NORAD_CAT_ID,OBJECT_NAME,OBJECT_TYPE,EPOCH,MEAN_MOTION,ECCENTRICITY,INCLINATION,RA_OF_ASC_NODE,ARG_OF_PERICENTER,MEAN_ANOMALY,BSTAR,MEAN_MOTION_DOT,MEAN_MOTION_DDOT,TLE_LINE0,TLE_LINE1,TLE_LINE2,SEMIMAJOR_AXIS,PERIOD,APOGEE,PERIGEE,DECAYED
50195.0,STARLINK-3266,PAYLOAD,2023-11-26 22:38:42,15.08824999,0.0001673,53.218,21.9553,63.2989,296.8174,-0.00038924,-6.475e-05,0.0,0 STARLINK-3266,1 50195U 21125AR  23330.94354455 -.00006475  00000-0 -38924-3 0  9994,2 50195  53.2180  21.9553 0001673  63.2989 296.8174 15.08824999110385,6917.926,95.439,540.949,538.634,0.0
50195.0,STARLINK-3266,PAYLOAD,2023-11-27 09:46:25,15.08808729,0.0001732,53.2182,19.8736,75.6239,284.4945,-0.0006261,-0.0001023,0.0,0 STARLINK-3266,1 50195U 21125AR  23331.40723670 -.00010230  00000-0 -62610-3 0  9998,2 50195  53.2182  19.8736 0001732  75.6239 284.4945 15.08808729110457,6917.976,95.44,541.039,538.643,0.0
50195.0,STARLINK-3266,PAYLOAD,2023-11-27 12:57:11,15.08812018,0.0001939,53.2171,19.2735,113.0413,247.0784,-0.00047609,-7.851e-05,0.0,0 STARLINK-3266,1 50195U 21125AR  23331.53971555 -.00007851  00000-0 -47609-3 0  9995,2 50195  53.2171  19.2735 0001939 113.0413 247.0784 15.08812018110955,6917.966,95.439,541.172,538.49,0.0
50195.0,STARLINK-3266,PAYLOAD,2023-11-28 09:37:12,15.08840223,0.0001821,53.2185,15.4106,79.5948,280.5249,0.00034684,5.236e-05,0.0,0 STARLINK-3266,1 50195U 21125AR  23332.40083604  .00005236  00000-0  34684-3 0  9993,2 50195  53.2185  15.4106 0001821  79.5948 280.5249 15.08840223110608,6917.88,95.438,541.004,538.485,0.0
50195.0,STARLINK-3266,PAYLOAD,2023-11-28 12:47:58,15.08852824,0.000161,53.2173,14.8104,102.4688,257.6484,0.00057912,8.944e-05,0.0,0 STARLINK-3266,1 50195U 21125AR  23332.53331039  .00008944  00000-0  57912-3 0  9993,2 50195  53.2173  14.8104 0001610 102.4688 257.6484 15.08852824111101,6917.841,95.437,540.82,538.592,0.0
50195.0,STARLINK-3266,PAYLOAD,2023-11-29 03:06:26,15.0883909,0.000221,53.2175,12.1277,139.462,220.6537,0.00057156,8.82e-05,0.0,0 STARLINK-3266,1 50195U 21125AR  23333.12947709  .00008820  00000-0  57156-3 0  9999,2 50195  53.2175  12.1277 0002210 139.4620 220.6537 15.08839090110713,6917.883,95.438,541.277,538.219,0.0
50195.0,STARLINK-3266,PAYLOAD,2023-11-29 09:27:59,15.08850631,0.0001817,53.2177,10.9504,101.8282,258.2914,0.00053914,8.305e-05,0.0,0 STARLINK-3266,1 50195U 21125AR  23333.39443382  .00008305  00000-0  53914-3 0  9992,2 50195  53.2177  10.9504 0001817 101.8282 258.2914 15.08850631111231,6917.848,95.437,540.97,538.456,0.0
50195.0,STARLINK-3266,PAYLOAD,2023-11-30 02:57:13,15.08848839,0.0001774,53.2178,7.6743,102.4415,257.6776,5.195e-05,5.39e-06,0.0,0 STARLINK-3266,1 50195U 21125AR  23334.12306882  .00000539  00000-0  51950-4 0  9997,2 50195  53.2178   7.6743 0001774 102.4415 257.6776 15.08848839110861,6917.853,95.437,540.946,538.491,0.0
50195.0,STARLINK-3266,PAYLOAD,2023-12-01 05:58:46,15.08841283,0.0001908,53.2181,2.6206,106.9739,253.1462,3.73e-05,3.06e-06,0.0,0 STARLINK-3266,1 50195U 21125AR  23335.24915245  .00000306  00000-0  37300-4 0  9995,2 50195  53.2181   2.6206 0001908 106.9739 253.1462 15.08841283111030,6917.876,95.437,541.061,538.422,0.0
50195.0,STARLINK-3266,PAYLOAD,2023-12-01 09:09:32,15.08844213,0.0001809,53.2186,2.0278,103.3892,256.7301,5.3835e-05,5.69e-06,0.0,0 STARLINK-3266,1 50195U 21125AR  23335.38163163  .00000569  00000-0  53835-4 0  9996,2 50195  53.2186   2.0278 0001809 103.3892 256.7301 15.08844213111531,6917.868,95.437,540.984,538.481,0.0
50195.0,STARLINK-3266,PAYLOAD,2023-12-02 09:00:18,15.08880487,0.0001699,53.2178,357.5672,88.1477,271.971,0.00092657,0.00014505,0.0,0 STARLINK-3266,1 50195U 21125AR  23336.37521729  .00014505  00000-0  92657-3 0  9991,2 50195  53.2178 357.5672 0001699  88.1477 271.9710 15.08880487111204,6917.757,95.435,540.797,538.446,0.0
50195.0,STARLINK-3266,PAYLOAD,2023-12-03 00:54:11,15.08823342,0.0001804,53.218,354.5952,95.7657,264.3541,-0.0004243,-7.031e-05,0.0,0 STARLINK-3266,1 50195U 21125AR  23337.03763438 -.00007031  00000-0 -42430-3 0  9992,2 50195  53.2180 354.5952 0001804  95.7657 264.3541 15.08823342111303,6917.931,95.439,541.044,538.548,0.0
50195.0,STARLINK-3266,PAYLOAD,2023-12-03 08:51:07,15.08813413,0.0002011,53.218,353.1012,141.3446,218.769,-0.00052167,-8.575e-05,0.0,0 STARLINK-3266,1 50195U 21125AR  23337.36884118 -.00008575  00000-0 -52167-3 0  9999,2 50195  53.2180 353.1012 0002011 141.3446 218.7690 15.08813413111351,6917.962,95.439,541.218,538.435,0.0
50195.0,STARLINK-3266,PAYLOAD,2023-12-04 10:17:18,15.08843699,0.0002139,53.2195,348.3437,75.2308,284.8921,0.00043049,6.57e-05,0.0,0 STARLINK-3266,1 50195U 21125AR  23338.42868701  .00006570  00000-0  43049-3 0  9997,2 50195  53.2195 348.3437 0002139  75.2308 284.8921 15.08843699111515,6917.869,95.437,541.214,538.254,0.0
50195.0,STARLINK-3266,PAYLOAD,2023-12-05 00:35:47,15.08842577,0.0001868,53.2182,345.6713,103.618,256.5021,0.0005978,9.239e-05,0.0,0 STARLINK-3266,1 50195U 21125AR  23339.02485079  .00009239  00000-0  59780-3 0  9991,2 50195  53.2182 345.6713 0001868 103.6180 256.5021 15.08842577111601,6917.873,95.437,541.03,538.445,0.0
50195.0,STARLINK-3266,PAYLOAD,2023-12-05 10:08:05,15.08853005,0.0001936,53.2183,343.8873,106.024,254.0965,0.00063903,9.9e-05,0.0,0 STARLINK-3266,1 50195U 21125AR  23339.42228286  .00009900  00000-0  63903-3 0  9997,2 50195  53.2183 343.8873 0001936 106.0240 254.0965 15.08853005112147,6917.841,95.437,541.045,538.366,0.0
50195.0,STARLINK-3266,PAYLOAD,2023-12-06 03:37:19,15.08852364,0.0002443,53.2182,340.612,118.9979,241.1258,3.8847e-05,3.3e-06,0.0,0 STARLINK-3266,1 50195U 21125AR  23340.15091763  .00000330  00000-0  38847-4 0  9995,2 50195  53.2182 340.6120 0002443 118.9979 241.1258 15.08852364111778,6917.843,95.437,541.398,538.018,0.0
50195.0,STARLINK-3266,PAYLOAD,2023-12-06 09:58:51,15.08851128,0.000194,53.2182,339.426,101.4449,258.6761,1.4206e-05,-6.2e-07,0.0,0 STARLINK-3266,1 50195U 21125AR  23340.41587758 -.00000062  00000-0  14206-4 0  9994,2 50195  53.2182 339.4260 0001940 101.4449 258.6761 15.08851128112296,6917.846,95.437,541.053,538.369,0.0
50195.0,STARLINK-3266,PAYLOAD,2023-12-07 05:03:30,15.08843955,0.0002047,53.2183,335.8523,126.4536,233.6645,-0.00013628,-2.457e-05,0.0,0 STARLINK-3266,1 50195U 21125AR  23341.21076441 -.00002457  00000-0 -13628-3 0  9992,2 50195  53.2183 335.8523 0002047 126.4536 233.6645 15.08843955111935,6917.868,95.437,541.149,538.317,0.0
50195.0,STARLINK-3266,PAYLOAD,2023-12-08 04:54:16,15.08846574,0.0002107,53.2191,331.393,118.2289,241.8916,0.00010087,1.318e-05,0.0,0 STARLINK-3266,1 50195U 21125AR  23342.20435860  .00001318  00000-0  10087-3 0  9995,2 50195  53.2191 331.3930 0002107 118.2289 241.8916 15.08846574112087,6917.86,95.437,541.183,538.268,0.0
50195.0,STARLINK-3266,PAYLOAD,2023-12-09 03:09:41,15.08839551,0.0001635,53.2192,327.2359,91.3435,268.7745,0.00018052,2.586e-05,0.0,0 STARLINK-3266,1 50195U 21125AR  23343.13172481  .00002586  00000-0  18052-3 0  9993,2 50195  53.2192 327.2359 0001635  91.3435 268.7745 15.08839551112227,6917.882,95.438,540.878,538.616,0.0
50195.0,STARLINK-3266,PAYLOAD,2023-12-09 04:45:04,15.08840697,0.0001647,53.2189,326.9382,92.223,267.8951,0.0001939,2.799e-05,0.0,0 STARLINK-3266,1 50195U 21125AR  23343.19796452  .00002799  00000-0  19390-3 0  9991,2 50195  53.2189 326.9382 0001647  92.2230 267.8951 15.08840697112717,6917.878,95.438,540.883,538.604,0.0
50195.0,STARLINK-3266,PAYLOAD,2023-12-10 07:46:37,15.08842005,0.000169,53.2175,321.8841,91.8909,268.2277,-1.0498e-05,-4.55e-06,0.0,0 STARLINK-3266,1 50195U 21125AR  23344.32404187 -.00000455  00000-0 -10498-4 0  9998,2 50195  53.2175 321.8841 0001690  91.8909 268.2277 15.08842005112409,6917.874,95.437,540.908,538.57,0.0
50195.0,STARLINK-3266,PAYLOAD,2023-12-11 06:02:01,15.08841341,0.0001614,53.218,317.7213,89.6889,270.4288,4.8196e-05,4.79e-06,0.0,0 STARLINK-3266,1 50195U 21125AR  23345.25140570  .00000479  00000-0  48196-4 0  9994,2 50195  53.2180 317.7213 0001614  89.6889 270.4288 15.08841341113028,6917.876,95.437,540.858,538.625,0.0
50195.0,STARLINK-3266,PAYLOAD,2023-12-12 02:42:02,15.08841463,0.0001664,53.2186,313.8562,84.5458,275.5724,0.00011822,1.594e-05,0.0,0 STARLINK-3266,1 50195U 21125AR  23346.11252329  .00001594  00000-0  11822-3 0  9990,2 50195  53.2186 313.8562 0001664  84.5458 275.5724 15.08841463112675,6917.876,95.437,540.892,538.59,0.0
50195.0,STARLINK-3266,PAYLOAD,2023-12-12 04:17:25,15.08844066,0.0001748,53.2184,313.56,81.069,279.05,0.00013931,1.93e-05,0.0,0 STARLINK-3266,1 50195U 21125AR  23346.17876257  .00001930  00000-0  13931-3 0  9995,2 50195  53.2184 313.5600 0001748  81.0690 279.0500 15.08844066113164,6917.868,95.437,540.942,538.524,0.0
50195.0,STARLINK-3266,PAYLOAD,2023-12-13 04:08:12,15.08845212,0.0001776,53.2182,309.1,78.4312,281.688,9.5904e-05,1.239e-05,0.0,0 STARLINK-3266,1 50195U 21125AR  23347.17236255  .00001239  00000-0  95904-4 0  9997,2 50195  53.2182 309.1000 0001776  78.4312 281.6880 15.08845212112836,6917.864,95.437,540.958,538.501,0.0
50195.0,STARLINK-3266,PAYLOAD,2023-12-14 03:58:59,15.08839332,0.000168,53.2172,304.6515,101.2475,258.8706,6.0106e-06,-1.92e-06,0.0,0 STARLINK-3266,1 50195U 21125AR  23348.16596707 -.00000192  00000-0  60106-5 0  9993,2 50195  53.2172 304.6515 0001680 101.2475 258.8706 15.08839332112980,6917.882,95.438,540.91,538.585,0.0
50195.0,STARLINK-3266,PAYLOAD,2023-12-15 03:49:45,15.08847161,0.0001585,53.2175,300.1776,89.6212,270.4962,0.00013528,1.866e-05,0.0,0 STARLINK-3266,1 50195U 21125AR  23349.15955740  .00001866  00000-0  13528-3 0  9991,2 50195  53.2175 300.1776 0001585  89.6212 270.4962 15.08847161113136,6917.859,95.437,540.82,538.627,0.0
50195.0,STARLINK-3266,PAYLOAD,2023-12-16 03:40:34,15.08833652,0.0001489,53.2179,295.7139,106.1828,253.9328,2.9509e-05,1.82e-06,0.0,0 STARLINK-3266,1 50195U 21125AR  23350.15317184  .00000182  00000-0  29509-4 0  9994,2 50195  53.2179 295.7139 0001489 106.1828 253.9328 15.08833652113281,6917.9,95.438,540.795,538.735,0.0
